0 SL-6 R/B(2)
1 26870U 01030D   13280.77899076  .00001356  00000-0  54670-3 0  4450
2 26870 063.7756 023.6659 7510219 253.2815 350.7653 01.96662216 87745
0 SL-6 R/B(2)
1 26870U 01030D   13288.47606727  .00001074  00000-0  66757-3 0  4472
2 26870 063.7636 022.4533 7512538 253.2800 040.4511 01.96687454 87893
0 SL-6 R/B(2)
1 26870U 01030D   13292.21154388 -.00000155  00000-0  61961-3 0  4483
2 26870 063.7562 021.8649 7513773 253.2788 165.5404 01.96700187 87966
0 SL-6 R/B(2)
1 26870U 01030D   13294.63661038 -.00000634  00000-0  60724-3 0  4495
2 26870 063.7509 021.4819 7514615 253.2780 082.7926 01.96704257 88018
